{"type": "FeatureCollection", "features": [ {"type": "Feature", "properties": {"norad_id": 31674, "name": "FENGYUN 1C DEB", "group": "fengyun-1c-debris", "lat": -68.0905744971849, "lon": 37.02776406194874, "alt_km": 712.1796666976061, "timestamp": "2025-12-04T05:42:43.656590+00:00", "meta": {"OBJECT_NAME": "FENGYUN 1C DEB", "OBJECT_ID": "1999-025CCG", "EPOCH": "2025-11-28T07:44:59.944992", "MEAN_MOTION": 14.51401416, "ECCENTRICITY": 0.00238859, "INCLINATION": 98.9271, "RA_OF_ASC_NODE": 7.7446, "ARG_OF_PERICENTER": 330.337, "MEAN_ANOMALY": 29.6468, "EPHEMERIS_TYPE": 0, "CLASSIFICATION_TYPE": "U", "NORAD_CAT_ID": 31674, "ELEMENT_SET_NO": 999, "REV_AT_EPOCH": 64405, "BSTAR": 0.0028928695, "MEAN_MOTION_DOT": 0.00011549, "MEAN_MOTION_DDOT": 0}, "tle": {"line1": "1 31674U 99025CCG 25332.32291603  .00011549  00000+0  28929-2 0  9998", "line2": "2 31674  98.9271   7.7446 0023885 330.3370  29.6468 14.51401416644053"}}, "geometry": {"type": "Point", "coordinates": [37.02776406194874, -68.0905744971849]}}, {"type": "Feature", "properties": {"norad_id": 31678, "name": "FENGYUN 1C DEB", "group": "fengyun-1c-debris", "lat": -28.007559877469525, "lon": -97.74025149748664, "alt_km": 887.3693921279, "timestamp": "2025-12-04T05:42:43.656600+00:00", "meta": {"OBJECT_NAME": "FENGYUN 1C DEB", "OBJECT_ID": "1999-025CCL", "EPOCH": "2025-11-26T13:19:25.960512", "MEAN_MOTION": 14.5293095, "ECCENTRICITY": 0.02605683, "INCLINATION": 98.7996, "RA_OF_ASC_NODE": 78.917, "ARG_OF_PERICENTER": 76.9742, "MEAN_ANOMALY": 286.0402, "EPHEMERIS_TYPE": 0, "CLASSIFICATION_TYPE": "U", "NORAD_CAT_ID": 31678, "ELEMENT_SET_NO": 999, "REV_AT_EPOCH": 96604, "BSTAR": 0.0012745717, "MEAN_MOTION_DOT": 8.183e-05, "MEAN_MOTION_DDOT": 0}, "tle": {"line1": "1 31678U 99025CCL 25330.55516158  .00008183  00000+0  12746-2 0  9990", "line2": "2 31678  98.7996  78.9170 0260568  76.9742 286.0402 14.52930950966044"}}, "geometry": {"type": "Point", "coordinates": [-97.74025149748664, -28.007559877469525]}}, {"type": "Feature", "properties": {"norad_id": 31680, "name": "FENGYUN 1C DEB", "group": "fengyun-1c-debris", "lat": 29.73930281723101, "lon": -91.18415057267258, "alt_km": 545.824446364798, "timestamp": "2025-12-04T05:42:43.656610+00:00", "meta": {"OBJECT_NAME": "FENGYUN 1C DEB", "OBJECT_ID": "1999-025CCN", "EPOCH": "2025-12-01T12:24:56.280384", "MEAN_MOTION": 15.23129089, "ECCENTRICITY": 0.00767186, "INCLINATION": 99.8371, "RA_OF_ASC_NODE": 79.5688, "ARG_OF_PERICENTER": 326.4475, "MEAN_ANOMALY": 33.1907, "EPHEMERIS_TYPE": 0, "CLASSIFICATION_TYPE": "U", "NORAD_CAT_ID": 31680, "ELEMENT_SET_NO": 999, "REV_AT_EPOCH": 1, "BSTAR": 0.0012787878, "MEAN_MOTION_DOT": 0.00032782, "MEAN_MOTION_DDOT": 0}, "tle": {"line1": "1 31680U 99025CCN 25335.51731806  .00032782  00000+0  12788-2 0  9991", "line2": "2 31680  99.8371  79.5688 0076718 326.4475  33.1907 15.23129089    14"}}, "geometry": {"type": "Point", "coordinates": [-91.18415057267258, 29.73930281723101]}}, {"type": "Feature", "properties": {"norad_id": 31685, "name": "FENGYUN 1C DEB", "group": "fengyun-1c-debris", "lat": -28.301770329505096, "lon": 177.96741708519764, "alt_km": 858.0432492224973, "timestamp": "2025-12-04T05:42:43.656620+00:00", "meta": {"OBJECT_NAME": "FENGYUN 1C DEB", "OBJECT_ID": "1999-025CCT", "EPOCH": "2025-12-01T20:30:32.424480", "MEAN_MOTION": 14.09652081, "ECCENTRICITY": 0.00155771, "INCLINATION": 98.732, "RA_OF_ASC_NODE": 0.403, "ARG_OF_PERICENTER": 258.1268, "MEAN_ANOMALY": 101.8156, "EPHEMERIS_TYPE": 0, "CLASSIFICATION_TYPE": "U", "NORAD_CAT_ID": 31685, "ELEMENT_SET_NO": 999, "REV_AT_EPOCH": 94936, "BSTAR": 0.00016751676, "MEAN_MOTION_DOT": 2.51e-06, "MEAN_MOTION_DDOT": 0}, "tle": {"line1": "1 31685U 99025CCT 25335.85454195  .00000251  00000+0  16752-3 0  9998", "line2": "2 31685  98.7320   0.4030 0015577 258.1268 101.8156 14.09652081949367"}}, "geometry": {"type": "Point", "coordinates": [177.96741708519764, -28.301770329505096]}}, {"type": "Feature", "properties": {"norad_id": 31686, "name": "FENGYUN 1C DEB", "group": "fengyun-1c-debris", "lat": -53.70133883008359, "lon": -141.4595232697783, "alt_km": 751.5051778612142, "timestamp": "2025-12-04T05:42:43.656630+00:00", "meta": {"OBJECT_NAME": "FENGYUN 1C DEB", "OBJECT_ID": "1999-025CCU", "EPOCH": "2025-12-02T03:43:38.757216", "MEAN_MOTION": 14.71793489, "ECCENTRICITY": 0.02845072, "INCLINATION": 98.1533, "RA_OF_ASC_NODE": 47.7056, "ARG_OF_PERICENTER": 123.0943, "MEAN_ANOMALY": 239.7923, "EPHEMERIS_TYPE": 0, "CLASSIFICATION_TYPE": "U", "NORAD_CAT_ID": 31686, "ELEMENT_SET_NO": 999, "REV_AT_EPOCH": 97663, "BSTAR": 0.0010846923, "MEAN_MOTION_DOT": 0.00012851, "MEAN_MOTION_DDOT": 0}, "tle": {"line1": "1 31686U 99025CCU 25336.15530969  .00012851  00000+0  10847-2 0  9994", "line2": "2 31686  98.1533  47.7056 0284507 123.0943 239.7923 14.71793489976631"}}, "geometry": {"type": "Point", "coordinates": [-141.4595232697783, -53.70133883008359]}}, {"type": "Feature", "properties": {"norad_id": 31688, "name": "FENGYUN 1C DEB", "group": "fengyun-1c-debris", "lat": -18.98669940388916, "lon": -150.6632851400201, "alt_km": 845.7172495886907, "timestamp": "2025-12-04T05:42:43.656640+00:00", "meta": {"OBJECT_NAME": "FENGYUN 1C DEB", "OBJECT_ID": "1999-025CCW", "EPOCH": "2025-12-03T09:55:56.692704", "MEAN_MOTION": 14.02313895, "ECCENTRICITY": 0.00750947, "INCLINATION": 98.9671, "RA_OF_ASC_NODE": 31.6401, "ARG_OF_PERICENTER": 166.8636, "MEAN_ANOMALY": 193.4509, "EPHEMERIS_TYPE": 0, "CLASSIFICATION_TYPE": "U", "NORAD_CAT_ID": 31688, "ELEMENT_SET_NO": 999, "REV_AT_EPOCH": 95147, "BSTAR": 2.1219756e-05, "MEAN_MOTION_DOT": -1e-07, "MEAN_MOTION_DDOT": 0}, "tle": {"line1": "1 31688U 99025CCW 25337.41385061 -.00000010  00000+0  21220-4 0  9991", "line2": "2 31688  98.9671  31.6401 0075094 166.8636 193.4509 14.02313895951477"}}, "geometry": {"type": "Point", "coordinates": [-150.6632851400201, -18.98669940388916]}}, {"type": "Feature", "properties": {"norad_id": 31691, "name": "FENGYUN 1C DEB", "group": "fengyun-1c-debris", "lat": 19.43828000859023, "lon": 61.389585469966214, "alt_km": 824.3004053354853, "timestamp": "2025-12-04T05:42:43.656650+00:00", "meta": {"OBJECT_NAME": "FENGYUN 1C DEB", "OBJECT_ID": "1999-025CCZ", "EPOCH": "2025-12-02T23:18:27.511200", "MEAN_MOTION": 14.25966665, "ECCENTRICITY": 0.00603814, "INCLINATION": 98.8825, "RA_OF_ASC_NODE": 63.2695, "ARG_OF_PERICENTER": 267.1233, "MEAN_ANOMALY": 92.3035, "EPHEMERIS_TYPE": 0, "CLASSIFICATION_TYPE": "U", "NORAD_CAT_ID": 31691, "ELEMENT_SET_NO": 999, "REV_AT_EPOCH": 63972, "BSTAR": 0.0030104933, "MEAN_MOTION_DOT": 7.279e-05, "MEAN_MOTION_DDOT": 0}, "tle": {"line1": "1 31691U 99025CCZ 25336.97115175  .00007279  00000+0  30105-2 0  9995", "line2": "2 31691  98.8825  63.2695 0060381 267.1233  92.3035 14.25966665639724"}}, "geometry": {"type": "Point", "coordinates": [61.389585469966214, 19.43828000859023]}}, {"type": "Feature", "properties": {"norad_id": 31692, "name": "FENGYUN 1C DEB", "group": "fengyun-1c-debris", "lat": -2.3398357042150923, "lon": 154.0589397977219, "alt_km": 819.1729212604569, "timestamp": "2025-12-04T05:42:43.656662+00:00", "meta": {"OBJECT_NAME": "FENGYUN 1C DEB", "OBJECT_ID": "1999-025CDA", "EPOCH": "2025-11-24T23:02:29.889888", "MEAN_MOTION": 14.18081768, "ECCENTRICITY": 0.00876738, "INCLINATION": 99.1762, "RA_OF_ASC_NODE": 324.8504, "ARG_OF_PERICENTER": 132.2014, "MEAN_ANOMALY": 228.6645, "EPHEMERIS_TYPE": 0, "CLASSIFICATION_TYPE": "U", "NORAD_CAT_ID": 31692, "ELEMENT_SET_NO": 999, "REV_AT_EPOCH": 57957, "BSTAR": 0.0029345373, "MEAN_MOTION_DOT": 6.21e-05, "MEAN_MOTION_DDOT": 0}, "tle": {"line1": "1 31692U 99025CDA 25328.96006817  .00006210  00000+0  29345-2 0  9996", "line2": "2 31692  99.1762 324.8504 0087673 132.2014 228.6645 14.18081768579577"}}, "geometry": {"type": "Point", "coordinates": [154.0589397977219, -2.3398357042150923]}}, {"type": "Feature", "properties": {"norad_id": 31695, "name": "FENGYUN 1C DEB", "group": "fengyun-1c-debris", "lat": 64.8491802101424, "lon": 44.35254935813852, "alt_km": 765.9156809839942, "timestamp": "2025-12-04T05:42:43.656672+00:00", "meta": {"OBJECT_NAME": "FENGYUN 1C DEB", "OBJECT_ID": "1999-025CDD", "EPOCH": "2025-12-03T11:28:32.426112", "MEAN_MOTION": 14.73278861, "ECCENTRICITY": 0.01756596, "INCLINATION": 98.2663, "RA_OF_ASC_NODE": 61.616, "ARG_OF_PERICENTER": 258.0995, "MEAN_ANOMALY": 100.0469, "EPHEMERIS_TYPE": 0, "CLASSIFICATION_TYPE": "U", "NORAD_CAT_ID": 31695, "ELEMENT_SET_NO": 999, "REV_AT_EPOCH": 65835, "BSTAR": 0.0020805464, "MEAN_MOTION_DOT": 0.00017181, "MEAN_MOTION_DDOT": 0}, "tle": {"line1": "1 31695U 99025CDD 25337.47815308  .00017181  00000+0  20805-2 0  9999", "line2": "2 31695  98.2663  61.6160 0175659 258.0995 100.0469 14.73278861658355"}}, "geometry": {"type": "Point", "coordinates": [44.35254935813852, 64.8491802101424]}}, {"type": "Feature", "properties": {"norad_id": 31714, "name": "FENGYUN 1C DEB", "group": "fengyun-1c-debris", "lat": 80.8718460297785, "lon": 139.16262560703464, "alt_km": 609.9170331425248, "timestamp": "2025-12-04T05:42:43.656685+00:00", "meta": {"OBJECT_NAME": "FENGYUN 1C DEB", "OBJECT_ID": "1999-025CDM", "EPOCH": "2025-12-03T07:15:10.328832", "MEAN_MOTION": 14.86254821, "ECCENTRICITY": 0.0022279, "INCLINATION": 99.0327, "RA_OF_ASC_NODE": 236.1954, "ARG_OF_PERICENTER": 332.509, "MEAN_ANOMALY": 154.2586, "EPHEMERIS_TYPE": 0, "CLASSIFICATION_TYPE": "U", "NORAD_CAT_ID": 31714, "ELEMENT_SET_NO": 999, "REV_AT_EPOCH": 95909, "BSTAR": 0.0084387, "MEAN_MOTION_DOT": 0.0007526, "MEAN_MOTION_DDOT": 0}, "tle": {"line1": "1 31714U 99025CDM 25337.30220288  .00075260  00000+0  84387-2 0  9997", "line2": "2 31714  99.0327 236.1954 0022279 332.5090 154.2586 14.86254821959096"}}, "geometry": {"type": "Point", "coordinates": [139.16262560703464, 80.8718460297785]}}]}